[
    {
        "Altitude(m)": 607897.6059851001,
        "Argument of Periapsis(deg)": 0.0,
        "Eccentricity": 0.0,
        "Inclination(deg)": 60.0,
        "Latitude(deg)": -14.292885748833859,
        "Longitude(deg)": 111.61875061944312,
        "Mean Anomaly(deg)": -16.363600000000037,
        "RAAN(deg)": 220.00000000000003,
        "Satellite Name": "Test1 989",
        "Satellite Number": 989,
        "Semi-Major Axis(m)": 6980739.136638005,
        "Time(s)": 0
    },
    {
        "Altitude(m)": 607750.8075838897,
        "Argument of Periapsis(deg)": 0.00010418945913296404,
        "Eccentricity": 0.0,
        "Inclination(deg)": 60.0,
        "Latitude(deg)": -13.75872723641141,
        "Longitude(deg)": 111.90581966163958,
        "Mean Anomaly(deg)": -15.743493854538185,
        "RAAN(deg)": 219.99957995086027,
        "Satellite Name": "Test1 989",
        "Satellite Number": 989,
        "Semi-Major Axis(m)": 6980739.136638005,
        "Time(s)": 10
    }
]